GLOBALSTAR M084         
1 38040U 11080A   24285.85274838 -.00000081  00000+0  12462-3 0  9998
2 38040  51.9998  84.4925 0000679 115.1275  51.3348 12.62268578591303
GLOBALSTAR M080         
1 38041U 11080B   24285.90336444 -.00000088  00000+0  89801-4 0  9996
2 38041  52.0051  85.8586 0000929 124.8775  31.4096 12.62266820591435
GLOBALSTAR M082         
1 38042U 11080C   24285.84213184 -.00000080  00000+0  13419-3 0  9998
2 38042  52.0093  41.4647 0000836  64.8819 113.1918 12.62267538592302
GLOBALSTAR M092         
1 38043U 11080D   24285.87839420 -.00000055  00000+0  27104-3 0  9997
2 38043  52.0064 131.7197 0000751  83.6957  19.3601 12.62267699590595
GLOBALSTAR M090         
1 38044U 11080E   24285.70353749 -.00000089  00000+0  80956-4 0  9997
2 38044  51.9909  36.0150 0000747  84.1083  64.0602 12.62268436592230
GLOBALSTAR M086         
1 38045U 11080F   24285.81369880 -.00000085  00000+0  10525-3 0  9993
2 38045  51.9917  36.2102 0001603 118.5284  51.0874 12.62268141592191
GLOBALSTAR M097         
1 39072U 13005A   24285.80318906 -.00000045  00000+0  32603-3 0  9992
2 39072  52.0053 310.5436 0000661  84.2708 275.8234 12.62271712539449
GLOBALSTAR M093         
1 39073U 13005B   24285.77638438 -.00000062  00000+0  23342-3 0  9993
2 39073  51.9813 304.3226 0000686  76.9677 283.1266 12.62265438539399
